SENTINEL-6              
1 46984U 20086A   24026.58690903 -.00000059  00000+0  10662-4 0  9994
2 46984  66.0412 147.4523 0007752 270.2756  89.7371 12.80930289148569
